[{"OBJECT_NAME":"ICESAT-2","OBJECT_ID":"2018-070A","EPOCH":"2026-03-09T22:54:12.225888","MEAN_MOTION":15.28328617,"ECCENTRICITY":0.00038245,"INCLINATION":91.9993,"RA_OF_ASC_NODE":264.2397,"ARG_OF_PERICENTER":123.8941,"MEAN_ANOMALY":236.2673,"EPHEMERIS_TYPE":0,"CLASSIFICATION_TYPE":"U","NORAD_CAT_ID":43613,"ELEMENT_SET_NO":999,"REV_AT_EPOCH":41730,"BSTAR":0.00014022643,"MEAN_MOTION_DOT":3.87e-5,"MEAN_MOTION_DDOT":0},{"OBJECT_NAME":"STARLINK-32672","OBJECT_ID":"2024-229D","EPOCH":"2026-03-09T23:01:13.117440","MEAN_MOTION":15.27591604,"ECCENTRICITY":0.00028318,"INCLINATION":43.0028,"RA_OF_ASC_NODE":269.1028,"ARG_OF_PERICENTER":248.7074,"MEAN_ANOMALY":111.3475,"EPHEMERIS_TYPE":0,"CLASSIFICATION_TYPE":"U","NORAD_CAT_ID":62195,"ELEMENT_SET_NO":999,"REV_AT_EPOCH":7060,"BSTAR":0.00057822556,"MEAN_MOTION_DOT":0.0001569,"MEAN_MOTION_DDOT":0}]
